0 FENGYUN 1C DEB
1 32208U 99025CVE 13281.50184334  .00005396  00000-0  18296-2 0  1749
2 32208 098.9492 010.4136 0053802 055.3050 305.4285 14.36325207325076
0 FENGYUN 1C DEB
1 32208U 99025CVE 13284.49722910  .00005503  00000-0  18644-2 0  1756
2 32208 098.9529 013.5240 0053435 047.4634 313.1614 14.36360258325504
0 FENGYUN 1C DEB
1 32208U 99025CVE 13286.02972212  .00005565  00000-0  18857-2 0  1764
2 32208 098.9625 015.1276 0052474 046.6573 313.9510 14.36378623325725
0 FENGYUN 1C DEB
1 32208U 99025CVE 13288.46774144  .00005708  00000-0  19297-2 0  1777
2 32208 098.9492 017.6268 0054750 030.2903 330.1749 14.36410201326073
0 FENGYUN 1C DEB
1 32208U 99025CVE 13290.48774668  .00008361  00000-0  28120-2 0  1798
2 32208 098.9587 019.7530 0050283 029.1495 331.2967 14.36454942326369
0 FENGYUN 1C DEB
1 32208U 99025CVE 13290.48777725  .00006154  00000-0  20797-2 0  1784
2 32208 098.9469 019.7398 0053407 027.8095 332.6916 14.36441966326363
0 FENGYUN 1C DEB
1 32208U 99025CVE 13292.08982703  .00006399  00000-0  21641-2 0  1797
2 32208 098.9545 021.4141 0050668 027.5559 332.9381 14.36467252326592
